{
  "type": "FeatureCollection",
  "features": [
    {
      "type": "Feature",
      "properties": {
        "norad_id": 31563,
        "name": "FENGYUN 1C DEB",
        "group": "fengyun-1c-debris",
        "lat": 64.92783819816005,
        "lon": 127.07596110675776,
        "alt_km": 589.7292146036389,
        "timestamp": "2025-12-18T17:50:15.240006+00:00",
        "meta_object_name": "FENGYUN 1C DEB",
        "meta_object_id": "1999-025BZE",
        "meta_epoch": "2025-12-17T08:45:54.099072",
        "meta_mean_motion": 14.65329236,
        "meta_eccentricity": 0.01138678,
        "meta_inclination": 98.9513,
        "meta_ra_of_asc_node": 145.2647,
        "meta_arg_of_pericenter": 64.7565,
        "meta_mean_anomaly": 296.5387,
        "meta_ephemeris_type": 0,
        "meta_classification_type": "U",
        "meta_norad_cat_id": 31563,
        "meta_element_set_no": 999,
        "meta_rev_at_epoch": 98612,
        "meta_bstar": 0.00039413254,
        "meta_mean_motion_dot": 2.278e-05,
        "meta_mean_motion_ddot": 0,
        "tle_line1": "1 31563U 99025BZE 25351.36520948  .00002278  00000+0  39413-3 0  9997",
        "tle_line2": "2 31563  98.9513 145.2647 0113867  64.7565 296.5387 14.65329236986120"
      },
      "geometry": {
        "type": "Point",
        "coordinates": [
          127.07596110675776,
          64.92783819816005
        ]
      }
    },
    {
      "type": "Feature",
      "properties": {
        "norad_id": 31565,
        "name": "FENGYUN 1C DEB",
        "group": "fengyun-1c-debris",
        "lat": 17.235179814560095,
        "lon": 49.71716802219572,
        "alt_km": 799.2514756345845,
        "timestamp": "2025-12-18T17:50:15.240016+00:00",
        "meta_object_name": "FENGYUN 1C DEB",
        "meta_object_id": "1999-025BZG",
        "meta_epoch": "2025-12-17T09:22:56.320896",
        "meta_mean_motion": 14.39016507,
        "meta_eccentricity": 0.0057047,
        "meta_inclination": 100.7176,
        "meta_ra_of_asc_node": 224.6629,
        "meta_arg_of_pericenter": 10.036,
        "meta_mean_anomaly": 350.1945,
        "meta_ephemeris_type": 0,
        "meta_classification_type": "U",
        "meta_norad_cat_id": 31565,
        "meta_element_set_no": 999,
        "meta_rev_at_epoch": 64420,
        "meta_bstar": 0.0024410426,
        "meta_mean_motion_dot": 7.627e-05,
        "meta_mean_motion_ddot": 0,
        "tle_line1": "1 31565U 99025BZG 25351.39092964  .00007627  00000+0  24410-2 0  9997",
        "tle_line2": "2 31565 100.7176 224.6629 0057047  10.0360 350.1945 14.39016507644207"
      },
      "geometry": {
        "type": "Point",
        "coordinates": [
          49.71716802219572,
          17.235179814560095
        ]
      }
    },
    {
      "type": "Feature",
      "properties": {
        "norad_id": 31566,
        "name": "FENGYUN 1C DEB",
        "group": "fengyun-1c-debris",
        "lat": 1.536194478949484,
        "lon": -127.85706504374897,
        "alt_km": 784.9001339847628,
        "timestamp": "2025-12-18T17:50:15.240026+00:00",
        "meta_object_name": "FENGYUN 1C DEB",
        "meta_object_id": "1999-025BZH",
        "meta_epoch": "2025-12-17T16:33:26.083872",
        "meta_mean_motion": 14.37451896,
        "meta_eccentricity": 0.0023013,
        "meta_inclination": 98.95,
        "meta_ra_of_asc_node": 50.8051,
        "meta_arg_of_pericenter": 339.7375,
        "meta_mean_anomaly": 150.8804,
        "meta_ephemeris_type": 0,
        "meta_classification_type": "U",
        "meta_norad_cat_id": 31566,
        "meta_element_set_no": 999,
        "meta_rev_at_epoch": 96462,
        "meta_bstar": 0.0016030698,
        "meta_mean_motion_dot": 4.765e-05,
        "meta_mean_motion_ddot": 0,
        "tle_line1": "1 31566U 99025BZH 25351.68988523  .00004765  00000+0  16031-2 0  9995",
        "tle_line2": "2 31566  98.9500  50.8051 0023013 339.7375 150.8804 14.37451896964620"
      },
      "geometry": {
        "type": "Point",
        "coordinates": [
          -127.85706504374897,
          1.536194478949484
        ]
      }
    },
    {
      "type": "Feature",
      "properties": {
        "norad_id": 31567,
        "name": "FENGYUN 1C DEB",
        "group": "fengyun-1c-debris",
        "lat": -43.71307013505271,
        "lon": 29.350184426327893,
        "alt_km": 874.911494718277,
        "timestamp": "2025-12-18T17:50:15.240036+00:00",
        "meta_object_name": "FENGYUN 1C DEB",
        "meta_object_id": "1999-025BZJ",
        "meta_epoch": "2025-12-17T11:26:14.743392",
        "meta_mean_motion": 13.9291605,
        "meta_eccentricity": 0.01867132,
        "meta_inclination": 102.317,
        "meta_ra_of_asc_node": 219.7268,
        "meta_arg_of_pericenter": 297.4648,
        "meta_mean_anomaly": 60.7625,
        "meta_ephemeris_type": 0,
        "meta_classification_type": "U",
        "meta_norad_cat_id": 31567,
        "meta_element_set_no": 999,
        "meta_rev_at_epoch": 67475,
        "meta_bstar": 0.0023166751,
        "meta_mean_motion_dot": 3.4e-05,
        "meta_mean_motion_ddot": 0,
        "tle_line1": "1 31567U 99025BZJ 25351.47655953  .00003400  00000+0  23167-2 0  9994",
        "tle_line2": "2 31567 102.3170 219.7268 0186713 297.4648  60.7625 13.92916050674750"
      },
      "geometry": {
        "type": "Point",
        "coordinates": [
          29.350184426327893,
          -43.71307013505271
        ]
      }
    },
    {
      "type": "Feature",
      "properties": {
        "norad_id": 31568,
        "name": "FENGYUN 1C DEB",
        "group": "fengyun-1c-debris",
        "lat": -77.8812293196147,
        "lon": -27.297365841581176,
        "alt_km": 974.8890061330558,
        "timestamp": "2025-12-18T17:50:15.240046+00:00",
        "meta_object_name": "FENGYUN 1C DEB",
        "meta_object_id": "1999-025BZK",
        "meta_epoch": "2025-12-16T21:47:39.438240",
        "meta_mean_motion": 14.03379275,
        "meta_eccentricity": 0.01228745,
        "meta_inclination": 102.0487,
        "meta_ra_of_asc_node": 234.3598,
        "meta_arg_of_pericenter": 109.3987,
        "meta_mean_anomaly": 252.0496,
        "meta_ephemeris_type": 0,
        "meta_classification_type": "U",
        "meta_norad_cat_id": 31568,
        "meta_element_set_no": 999,
        "meta_rev_at_epoch": 94638,
        "meta_bstar": 0.0023237781,
        "meta_mean_motion_dot": 3.818e-05,
        "meta_mean_motion_ddot": 0,
        "tle_line1": "1 31568U 99025BZK 25350.90809535  .00003818  00000+0  23238-2 0  9991",
        "tle_line2": "2 31568 102.0487 234.3598 0122874 109.3987 252.0496 14.03379275946381"
      },
      "geometry": {
        "type": "Point",
        "coordinates": [
          -27.297365841581176,
          -77.8812293196147
        ]
      }
    },
    {
      "type": "Feature",
      "properties": {
        "norad_id": 31569,
        "name": "FENGYUN 1C DEB",
        "group": "fengyun-1c-debris",
        "lat": -73.718247484178,
        "lon": -157.7871111821744,
        "alt_km": 873.5950990760384,
        "timestamp": "2025-12-18T17:50:15.240056+00:00",
        "meta_object_name": "FENGYUN 1C DEB",
        "meta_object_id": "1999-025BZL",
        "meta_epoch": "2025-12-17T09:39:30.836736",
        "meta_mean_motion": 13.95560448,
        "meta_eccentricity": 0.01740525,
        "meta_inclination": 102.6149,
        "meta_ra_of_asc_node": 150.3241,
        "meta_arg_of_pericenter": 354.8436,
        "meta_mean_anomaly": 34.4432,
        "meta_ephemeris_type": 0,
        "meta_classification_type": "U",
        "meta_norad_cat_id": 31569,
        "meta_element_set_no": 999,
        "meta_rev_at_epoch": 93744,
        "meta_bstar": 0.0018235826,
        "meta_mean_motion_dot": 2.742e-05,
        "meta_mean_motion_ddot": 0,
        "tle_line1": "1 31569U 99025BZL 25351.40244024  .00002742  00000+0  18236-2 0  9991",
        "tle_line2": "2 31569 102.6149 150.3241 0174052 354.8436  34.4432 13.95560448937449"
      },
      "geometry": {
        "type": "Point",
        "coordinates": [
          -157.7871111821744,
          -73.718247484178
        ]
      }
    },
    {
      "type": "Feature",
      "properties": {
        "norad_id": 31570,
        "name": "FENGYUN 1C DEB",
        "group": "fengyun-1c-debris",
        "lat": 75.9046834383622,
        "lon": -28.429369985081962,
        "alt_km": 863.340310725639,
        "timestamp": "2025-12-18T17:50:15.240066+00:00",
        "meta_object_name": "FENGYUN 1C DEB",
        "meta_object_id": "1999-025BZM",
        "meta_epoch": "2025-12-15T20:21:47.018304",
        "meta_mean_motion": 14.25278416,
        "meta_eccentricity": 0.01547184,
        "meta_inclination": 102.5675,
        "meta_ra_of_asc_node": 30.1124,
        "meta_arg_of_pericenter": 216.2531,
        "meta_mean_anomaly": 142.807,
        "meta_ephemeris_type": 0,
        "meta_classification_type": "U",
        "meta_norad_cat_id": 31570,
        "meta_element_set_no": 999,
        "meta_rev_at_epoch": 63411,
        "meta_bstar": 0.0020808441,
        "meta_mean_motion_dot": 5.475e-05,
        "meta_mean_motion_ddot": 0,
        "tle_line1": "1 31570U 99025BZM 25349.84846086  .00005475  00000+0  20808-2 0  9998",
        "tle_line2": "2 31570 102.5675  30.1124 0154718 216.2531 142.8070 14.25278416634118"
      },
      "geometry": {
        "type": "Point",
        "coordinates": [
          -28.429369985081962,
          75.9046834383622
        ]
      }
    }
  ]
}